{"fetched_at":"2026-07-19T07:04:47.356Z","source":"https://celestrak.org/NORAD/elements/gp.php?GROUP=kuiper&FORMAT=JSON","constellation":"kuiper","records":[{"OBJECT_NAME":"KUIPER-00647","OBJECT_ID":"2026-151AD","EPOCH":"2026-07-18T09:20:35.448288","CLASSIFICATION_TYPE":"U","MEAN_MOTION":15.3510578,"ECCENTRICITY":0.0010638,"INCLINATION":51.8665,"RA_OF_ASC_NODE":165.1337,"ARG_OF_PERICENTER":176.4406,"MEAN_ANOMALY":183.6657,"EPHEMERIS_TYPE":0,"NORAD_CAT_ID":69790,"ELEMENT_SET_NO":999,"REV_AT_EPOCH":250,"BSTAR":-0.000034048503,"MEAN_MOTION_DOT":-0.00001567,"MEAN_MOTION_DDOT":0},{"OBJECT_NAME":"KUIPER-00662","OBJECT_ID":"2026-151AE","EPOCH":"2026-07-18T20:03:23.427648","CLASSIFICATION_TYPE":"U","MEAN_MOTION":15.36542483,"ECCENTRICITY":0.0008303,"INCLINATION":51.8746,"RA_OF_ASC_NODE":162.8842,"ARG_OF_PERICENTER":171.4879,"MEAN_ANOMALY":188.625,"EPHEMERIS_TYPE":0,"NORAD_CAT_ID":69791,"ELEMENT_SET_NO":999,"REV_AT_EPOCH":257,"BSTAR":0.00031424,"MEAN_MOTION_DOT":0.00011019,"MEAN_MOTION_DDOT":0}]}
